STARLINK-1559           
1 46077U 20055BC  26068.23360559  .00042685  00000+0  14779-2 0  9995
2 46077  53.0254  76.0659 0004229  33.9710 326.1559 15.29461733309518
STARLINK-32875          
1 62951U 25029D   26068.78497170  .00039502  00000+0  13405-2 0  9999
2 62951  53.1593 229.7829 0001248  75.4058 284.7081 15.30158605 61375
